H1 CPF  1  DGF 2022 07 18 11  6991 larets     NONE      
H2   304206 5557    27944 2022 07 18 00 00 00 2022 07 25 00 00 00    30 1 1  0 0 0
H5  0.0650
H9
10 0 59784  82800.000000  0      -3139387.191      -2112152.654      -5967674.823
10 0 59784  82830.000000  0      -3023763.318      -1952451.511      -6081067.537
10 0 59784  82860.000000  0      -2904389.145      -1791296.135      -6188284.168
10 0 59784  82890.000000  0      -2781379.961      -1628865.718      -6289217.779
10 0 59784  82920.000000  0      -2654855.406      -1465340.107      -6383767.824
10 0 59784  82950.000000  0      -2524939.344      -1300899.602      -6471840.239
10 0 59784  82980.000000  0      -2391759.742      -1135724.763      -6553347.527
10 0 59784  83010.000000  0      -2255448.539       -969996.212      -6628208.828
10 0 59784  83040.000000  0      -2116141.515       -803894.438      -6696349.990
10 0 59784  83070.000000  0      -1973978.150       -637599.602      -6757703.633
10 0 59784  83100.000000  0      -1829101.488       -471291.349      -6812209.196
10 0 59784  83130.000000  0      -1681657.993       -305148.617      -6859812.997
10 0 59784  83160.000000  0      -1531797.403       -139349.453      -6900468.269
10 0 59784  83190.000000  0      -1379672.582         25929.177      -6934135.205
10 0 59784  83220.000000  0      -1225439.361        190511.566      -6960780.991
10 0 59784  83250.000000  0      -1069256.384        354223.453      -6980379.834
10 0 59784  83280.000000  0       -911284.943        516892.202      -6992912.981
10 0 59784  83310.000000  0       -751688.815        678346.982      -6998368.727
10 0 59784  83340.000000  0       -590634.099        838418.940      -6996742.425
10 0 59784  83370.000000  0       -428289.041        996941.368      -6988036.482
10 0 59784  83400.000000  0       -264823.873       1153749.874      -6972260.352
10 0 59784  83430.000000  0       -100410.635       1308682.540      -6949430.534
10 0 59784  83460.000000  0         64776.999       1461580.089      -6919570.554
10 0 59784  83490.000000  0        230563.898       1612286.047      -6882710.950
10 0 59784  83520.000000  0        396773.664       1760646.899      -6838889.239
10 0 59784  83550.000000  0        563228.815       1906512.248      -6788149.882
10 0 59784  83580.000000  0        729750.972       2049734.955      -6730544.234
10 0 59784  83610.000000  0        896161.048       2190171.291      -6666130.502
10 0 59784  83640.000000  0       1062279.428       2327681.072      -6594973.681
10 0 59784  83670.000000  0       1227926.165       2462127.799      -6517145.502
10 0 59784  83700.000000  0       1392921.161       2593378.798      -6432724.367
10 0 59784  83730.000000  0       1557084.372       2721305.345      -6341795.269
10 0 59784  83760.000000  0       1720235.992       2845782.794      -6244449.716
10 0 59784  83790.000000  0       1882196.653       2966690.695      -6140785.645
10 0 59784  83820.000000  0       2042787.614       3083912.906      -6030907.326
10 0 59784  83850.000000  0       2201830.957       3197337.709      -5914925.271
10 0 59784  83880.000000  0       2359149.779       3306857.913      -5792956.128
10 0 59784  83910.000000  0       2514568.385       3412370.956      -5665122.575
10 0 59784  83940.000000  0       2667912.484       3513779.006      -5531553.208
10 0 59784  83970.000000  0       2819009.384       3610989.056      -5392382.419
10 0 59784  84000.000000  0       2967688.183       3703913.007      -5247750.269
10 0 59784  84030.000000  0       3113779.965       3792467.756      -5097802.357
10 0 59784  84060.000000  0       3257117.992       3876575.271      -4942689.681
10 0 59784  84090.000000  0       3397537.891       3956162.659      -4782568.497
10 0 59784  84120.000000  0       3534877.850       4031162.239      -4617600.164
10 0 59784  84150.000000  0       3668978.797       4101511.598      -4447950.994
10 0 59784  84180.000000  0       3799684.590       4167153.647      -4273792.091
10 0 59784  84210.000000  0       3926842.204       4228036.671      -4095299.184
10 0 59784  84240.000000  0       4050301.909       4284114.371      -3912652.459
10 0 59784  84270.000000  0       4169917.450       4335345.904      -3726036.378
10 0 59784  84300.000000  0       4285546.224       4381695.907      -3535639.497
10 0 59784  84330.000000  0       4397049.446       4423134.530      -3341654.282
10 0 59784  84360.000000  0       4504292.325       4459637.446      -3144276.917
10 0 59784  84390.000000  0       4607144.219       4491185.869      -2943707.106
10 0 59784  84420.000000  0       4705478.801       4517766.555      -2740147.884
10 0 59784  84450.000000  0       4799174.217       4539371.805      -2533805.411
10 0 59784  84480.000000  0       4888113.239       4555999.462      -2324888.763
10 0 59784  84510.000000  0       4972183.418       4567652.894      -2113609.726
10 0 59784  84540.000000  0       5051277.228       4574340.978      -1900182.572
10 0 59784  84570.000000  0       5125292.200       4576078.069      -1684823.847
10 0 59784  84600.000000  0       5194131.056       4572883.973      -1467752.145
10 0 59784  84630.000000  0       5257701.834       4564783.901      -1249187.891
10 0 59784  84660.000000  0       5315918.015       4551808.435      -1029353.114
10 0 59784  84690.000000  0       5368698.632       4533993.468       -808471.218
10 0 59784  84720.000000  0       5415968.383       4511380.152       -586766.751
10 0 59784  84750.000000  0       5457657.736       4484014.836       -364465.181
10 0 59784  84780.000000  0       5493703.023       4451948.996       -141792.661
10 0 59784  84810.000000  0       5524046.535       4415239.160         81024.206
10 0 59784  84840.000000  0       5548636.607       4373946.835        303758.598
10 0 59784  84870.000000  0       5567427.699       4328138.410        526183.713
10 0 59784  84900.000000  0       5580380.462       4277885.071        748073.004
10 0 59784  84930.000000  0       5587461.809       4223262.696        969200.412
10 0 59784  84960.000000  0       5588644.967       4164351.759       1189340.603
10 0 59784  84990.000000  0       5583909.531       4101237.214       1408269.200
10 0 59784  85020.000000  0       5573241.506       4034008.387       1625763.021
10 0 59784  85050.000000  0       5556633.342       3962758.852       1841600.311
10 0 59784  85080.000000  0       5534083.957       3887586.311       2055560.973
10 0 59784  85110.000000  0       5505598.757       3808592.465       2267426.798
10 0 59784  85140.000000  0       5471189.648       3725882.881       2476981.689
10 0 59784  85170.000000  0       5430875.040       3639566.856       2684011.890
10 0 59784  85200.000000  0       5384679.843       3549757.278       2888306.205
10 0 59784  85230.000000  0       5332635.457       3456570.479       3089656.217
10 0 59784  85260.000000  0       5274779.755       3360126.089       3287856.508
10 0 59784  85290.000000  0       5211157.051       3260546.881       3482704.864
10 0 59784  85320.000000  0       5141818.073       3157958.620       3674002.491
10 0 59784  85350.000000  0       5066819.919       3052489.901       3861554.219
10 0 59784  85380.000000  0       4986226.006       2944271.987       4045168.700
10 0 59784  85410.000000  0       4900106.008       2833438.643       4224658.597
10 0 59784  85440.000000  0       4808535.807       2720125.974       4399840.769
10 0 59784  85470.000000  0       4711597.427       2604472.267       4570536.460
10 0 59784  85500.000000  0       4609378.961       2486617.822       4736571.490
10 0 59784  85530.000000  0       4501974.485       2366704.781       4897776.445
10 0 59784  85560.000000  0       4389483.959       2244876.955       5053986.839
10 0 59784  85590.000000  0       4272013.127       2121279.649       5205043.282
10 0 59784  85620.000000  0       4149673.421       1996059.495       5350791.640
10 0 59784  85650.000000  0       4022581.847       1869364.269       5491083.187
10 0 59784  85680.000000  0       3890860.870       1741342.722       5625774.760
10 0 59784  85710.000000  0       3754638.293       1612144.400       5754728.896
10 0 59784  85740.000000  0       3614047.126       1481919.472       5877813.969
10 0 59784  85770.000000  0       3469225.455       1350818.548       5994904.324
10 0 59784  85800.000000  0       3320316.301       1218992.514       6105880.393
10 0 59784  85830.000000  0       3167467.481       1086592.350       6210628.817
10 0 59784  85860.000000  0       3010831.455        953768.966       6309042.552
10 0 59784  85890.000000  0       2850565.176        820673.029       6401020.981
10 0 59784  85920.000000  0       2686829.931        687454.797       6486470.012
10 0 59784  85950.000000  0       2519791.182        554263.945       6565302.172
10 0 59784  85980.000000  0       2349618.390        421249.403       6637436.699
10 0 59784  86010.000000  0       2176484.854        288559.185       6702799.621
10 0 59784  86040.000000  0       2000567.522        156340.228       6761323.831
10 0 59784  86070.000000  0       1822046.819         24738.230       6812949.159
10 0 59784  86100.000000  0       1641106.455       -106102.514       6857622.433
10 0 59784  86130.000000  0       1457933.236       -236039.269       6895297.535
10 0 59784  86160.000000  0       1272716.868       -364931.019       6925935.444
10 0 59784  86190.000000  0       1085649.757       -492638.622       6949504.273
10 0 59784  86220.000000  0        896926.817       -619024.955       6965979.303
10 0 59784  86250.000000  0        706745.266       -743955.063       6975343.008
10 0 59784  86280.000000  0        515304.418       -867296.304       6977585.083
10 0 59784  86310.000000  0        322805.472       -988918.492       6972702.451
10 0 59784  86340.000000  0        129451.303      -1108694.034       6960699.269
10 0 59784  86370.000000  0        -64553.752      -1226498.068       6941586.929
99
